{
  "type": "FeatureCollection",
  "features": [
    {
      "type": "Feature",
      "properties": {
        "norad_id": 28890,
        "name": "BEIJING 1",
        "group": "dmc",
        "lat": -8.711480597485759,
        "lon": 127.13441535161152,
        "alt_km": 691.1868940048462,
        "timestamp": "2025-12-24T07:45:05.865327+00:00",
        "meta_object_name": "BEIJING 1",
        "meta_object_id": "2005-043A",
        "meta_epoch": "2025-12-23T23:35:12.138432",
        "meta_mean_motion": 14.63375111,
        "meta_eccentricity": 0.00157959,
        "meta_inclination": 98.2665,
        "meta_ra_of_asc_node": 125.517,
        "meta_arg_of_pericenter": 108.1837,
        "meta_mean_anomaly": 252.1086,
        "meta_ephemeris_type": 0,
        "meta_classification_type": "U",
        "meta_norad_cat_id": 28890,
        "meta_element_set_no": 999,
        "meta_rev_at_epoch": 7502,
        "meta_bstar": 4.8566934e-05,
        "meta_mean_motion_dot": 2.02e-06,
        "meta_mean_motion_ddot": 0,
        "tle_line1": "1 28890U 05043A   25357.98277938  .00000202  00000+0  48567-4 0  9991",
        "tle_line2": "2 28890  98.2665 125.5170 0015795 108.1837 252.1086 14.63375111 75021"
      },
      "geometry": {
        "type": "Point",
        "coordinates": [
          127.13441535161152,
          -8.711480597485759
        ]
      }
    },
    {
      "type": "Feature",
      "properties": {
        "norad_id": 33320,
        "name": "HUANJING 1A (HJ-1A)",
        "group": "dmc",
        "lat": 46.44332816375841,
        "lon": 174.269033438088,
        "alt_km": 624.0924245606584,
        "timestamp": "2025-12-24T07:45:05.865351+00:00",
        "meta_object_name": "HUANJING 1A (HJ-1A)",
        "meta_object_id": "2008-041A",
        "meta_epoch": "2025-12-23T23:03:38.564064",
        "meta_mean_motion": 14.83427083,
        "meta_eccentricity": 0.00193136,
        "meta_inclination": 97.6546,
        "meta_ra_of_asc_node": 345.7907,
        "meta_arg_of_pericenter": 358.7486,
        "meta_mean_anomaly": 1.3677,
        "meta_ephemeris_type": 0,
        "meta_classification_type": "U",
        "meta_norad_cat_id": 33320,
        "meta_element_set_no": 999,
        "meta_rev_at_epoch": 93242,
        "meta_bstar": 0.00015514087,
        "meta_mean_motion_dot": 1.226e-05,
        "meta_mean_motion_ddot": 0,
        "tle_line1": "1 33320U 08041A   25357.96086301  .00001226  00000+0  15514-3 0  9998",
        "tle_line2": "2 33320  97.6546 345.7907 0019313 358.7486   1.3677 14.83427083932427"
      },
      "geometry": {
        "type": "Point",
        "coordinates": [
          174.269033438088,
          46.44332816375841
        ]
      }
    },
    {
      "type": "Feature",
      "properties": {
        "norad_id": 33321,
        "name": "HUANJING 1B (HJ-1B)",
        "group": "dmc",
        "lat": -30.343514422738135,
        "lon": -5.688962673886793,
        "alt_km": 617.0034592854308,
        "timestamp": "2025-12-24T07:45:05.865367+00:00",
        "meta_object_name": "HUANJING 1B (HJ-1B)",
        "meta_object_id": "2008-041B",
        "meta_epoch": "2025-12-23T23:47:29.232384",
        "meta_mean_motion": 14.8284783,
        "meta_eccentricity": 0.00377872,
        "meta_inclination": 97.6402,
        "meta_ra_of_asc_node": 349.4873,
        "meta_arg_of_pericenter": 40.0423,
        "meta_mean_anomaly": 320.3566,
        "meta_ephemeris_type": 0,
        "meta_classification_type": "U",
        "meta_norad_cat_id": 33321,
        "meta_element_set_no": 999,
        "meta_rev_at_epoch": 93244,
        "meta_bstar": 0.0001338043,
        "meta_mean_motion_dot": 1.045e-05,
        "meta_mean_motion_ddot": 0,
        "tle_line1": "1 33321U 08041B   25357.99131056  .00001045  00000+0  13380-3 0  9998",
        "tle_line2": "2 33321  97.6402 349.4873 0037787  40.0423 320.3566 14.82847830932447"
      },
      "geometry": {
        "type": "Point",
        "coordinates": [
          -5.688962673886793,
          -30.343514422738135
        ]
      }
    },
    {
      "type": "Feature",
      "properties": {
        "norad_id": 33446,
        "name": "YAOGAN-4",
        "group": "dmc",
        "lat": -55.233932436263444,
        "lon": 96.74055290231158,
        "alt_km": 621.547085973627,
        "timestamp": "2025-12-24T07:45:05.865379+00:00",
        "meta_object_name": "YAOGAN-4",
        "meta_object_id": "2008-061A",
        "meta_epoch": "2025-12-23T12:52:24.131424",
        "meta_mean_motion": 14.82712321,
        "meta_eccentricity": 0.00130241,
        "meta_inclination": 97.9197,
        "meta_ra_of_asc_node": 287.5304,
        "meta_arg_of_pericenter": 285.0861,
        "meta_mean_anomaly": 74.8911,
        "meta_ephemeris_type": 0,
        "meta_classification_type": "U",
        "meta_norad_cat_id": 33446,
        "meta_element_set_no": 999,
        "meta_rev_at_epoch": 91963,
        "meta_bstar": 0.00016555221,
        "meta_mean_motion_dot": 1.284e-05,
        "meta_mean_motion_ddot": 0,
        "tle_line1": "1 33446U 08061A   25357.53639041  .00001284  00000+0  16555-3 0  9997",
        "tle_line2": "2 33446  97.9197 287.5304 0013024 285.0861  74.8911 14.82712321919632"
      },
      "geometry": {
        "type": "Point",
        "coordinates": [
          96.74055290231158,
          -55.233932436263444
        ]
      }
    },
    {
      "type": "Feature",
      "properties": {
        "norad_id": 35681,
        "name": "DEIMOS-1",
        "group": "dmc",
        "lat": 42.915445633448144,
        "lon": 151.14605427047258,
        "alt_km": 640.0318161273935,
        "timestamp": "2025-12-24T07:45:05.865391+00:00",
        "meta_object_name": "DEIMOS-1",
        "meta_object_id": "2009-041A",
        "meta_epoch": "2025-12-23T23:24:53.517888",
        "meta_mean_motion": 14.7497006,
        "meta_eccentricity": 0.00025115,
        "meta_inclination": 97.7154,
        "meta_ra_of_asc_node": 158.0562,
        "meta_arg_of_pericenter": 61.6046,
        "meta_mean_anomaly": 298.5417,
        "meta_ephemeris_type": 0,
        "meta_classification_type": "U",
        "meta_norad_cat_id": 35681,
        "meta_element_set_no": 999,
        "meta_rev_at_epoch": 88105,
        "meta_bstar": 0.00015484213,
        "meta_mean_motion_dot": 9.93e-06,
        "meta_mean_motion_ddot": 0,
        "tle_line1": "1 35681U 09041A   25357.97561942  .00000993  00000+0  15484-3 0  9997",
        "tle_line2": "2 35681  97.7154 158.0562 0002511  61.6046 298.5417 14.74970060881053"
      },
      "geometry": {
        "type": "Point",
        "coordinates": [
          151.14605427047258,
          42.915445633448144
        ]
      }
    },
    {
      "type": "Feature",
      "properties": {
        "norad_id": 35683,
        "name": "UK-DMC 2",
        "group": "dmc",
        "lat": 81.47767468609307,
        "lon": 65.74659032791342,
        "alt_km": 634.5641761478864,
        "timestamp": "2025-12-24T07:45:05.865402+00:00",
        "meta_object_name": "UK-DMC 2",
        "meta_object_id": "2009-041C",
        "meta_epoch": "2025-12-23T23:13:23.933568",
        "meta_mean_motion": 14.75645635,
        "meta_eccentricity": 0.00015554,
        "meta_inclination": 97.8572,
        "meta_ra_of_asc_node": 132.5541,
        "meta_arg_of_pericenter": 91.0191,
        "meta_mean_anomaly": 269.1197,
        "meta_ephemeris_type": 0,
        "meta_classification_type": "U",
        "meta_norad_cat_id": 35683,
        "meta_element_set_no": 999,
        "meta_rev_at_epoch": 88072,
        "meta_bstar": 0.00019872055,
        "meta_mean_motion_dot": 1.308e-05,
        "meta_mean_motion_ddot": 0,
        "tle_line1": "1 35683U 09041C   25357.96763812  .00001308  00000+0  19872-3 0  9994",
        "tle_line2": "2 35683  97.8572 132.5541 0001555  91.0191 269.1197 14.75645635880729"
      },
      "geometry": {
        "type": "Point",
        "coordinates": [
          65.74659032791342,
          81.47767468609307
        ]
      }
    },
    {
      "type": "Feature",
      "properties": {
        "norad_id": 40715,
        "name": "DMC3-FM1",
        "group": "dmc",
        "lat": -4.283731116151642,
        "lon": 44.51503718680678,
        "alt_km": 615.7095855028001,
        "timestamp": "2025-12-24T07:45:05.865413+00:00",
        "meta_object_name": "DMC3-FM1",
        "meta_object_id": "2015-032A",
        "meta_epoch": "2025-12-23T22:50:28.654656",
        "meta_mean_motion": 14.85460293,
        "meta_eccentricity": 0.00040308,
        "meta_inclination": 97.6684,
        "meta_ra_of_asc_node": 224.7357,
        "meta_arg_of_pericenter": 275.3153,
        "meta_mean_anomaly": 84.7603,
        "meta_ephemeris_type": 0,
        "meta_classification_type": "U",
        "meta_norad_cat_id": 40715,
        "meta_element_set_no": 999,
        "meta_rev_at_epoch": 56389,
        "meta_bstar": 0.00012829511,
        "meta_mean_motion_dot": 1.055e-05,
        "meta_mean_motion_ddot": 0,
        "tle_line1": "1 40715U 15032A   25357.95172054  .00001055  00000+0  12830-3 0  9990",
        "tle_line2": "2 40715  97.6684 224.7357 0004030 275.3153  84.7603 14.85460293563893"
      },
      "geometry": {
        "type": "Point",
        "coordinates": [
          44.51503718680678,
          -4.283731116151642
        ]
      }
    },
    {
      "type": "Feature",
      "properties": {
        "norad_id": 40716,
        "name": "DMC3-FM2",
        "group": "dmc",
        "lat": 63.025947332951226,
        "lon": -148.81742645350957,
        "alt_km": 608.6387630098689,
        "timestamp": "2025-12-24T07:45:05.865423+00:00",
        "meta_object_name": "DMC3-FM2",
        "meta_object_id": "2015-032B",
        "meta_epoch": "2025-12-23T21:45:51.251616",
        "meta_mean_motion": 14.85459108,
        "meta_eccentricity": 0.00046815,
        "meta_inclination": 97.674,
        "meta_ra_of_asc_node": 226.1439,
        "meta_arg_of_pericenter": 282.1246,
        "meta_mean_anomaly": 77.9445,
        "meta_ephemeris_type": 0,
        "meta_classification_type": "U",
        "meta_norad_cat_id": 40716,
        "meta_element_set_no": 999,
        "meta_rev_at_epoch": 56388,
        "meta_bstar": 8.1777349e-05,
        "meta_mean_motion_dot": 6.54e-06,
        "meta_mean_motion_ddot": 0,
        "tle_line1": "1 40716U 15032B   25357.90684319  .00000654  00000+0  81777-4 0  9999",
        "tle_line2": "2 40716  97.6740 226.1439 0004681 282.1246  77.9445 14.85459108563885"
      },
      "geometry": {
        "type": "Point",
        "coordinates": [
          -148.81742645350957,
          63.025947332951226
        ]
      }
    },
    {
      "type": "Feature",
      "properties": {
        "norad_id": 40717,
        "name": "DMC3-FM3",
        "group": "dmc",
        "lat": -51.43009014874142,
        "lon": -122.07248013090036,
        "alt_km": 616.6528361430946,
        "timestamp": "2025-12-24T07:45:05.865434+00:00",
        "meta_object_name": "DMC3-FM3",
        "meta_object_id": "2015-032C",
        "meta_epoch": "2025-12-23T22:17:08.092896",
        "meta_mean_motion": 14.85445664,
        "meta_eccentricity": 0.00039969,
        "meta_inclination": 97.6794,
        "meta_ra_of_asc_node": 227.8054,
        "meta_arg_of_pericenter": 282.5918,
        "meta_mean_anomaly": 77.4851,
        "meta_ephemeris_type": 0,
        "meta_classification_type": "U",
        "meta_norad_cat_id": 40717,
        "meta_element_set_no": 999,
        "meta_rev_at_epoch": 56389,
        "meta_bstar": 0.00012809831,
        "meta_mean_motion_dot": 1.053e-05,
        "meta_mean_motion_ddot": 0,
        "tle_line1": "1 40717U 15032C   25357.92856589  .00001053  00000+0  12810-3 0  9997",
        "tle_line2": "2 40717  97.6794 227.8054 0003996 282.5918  77.4851 14.85445664563893"
      },
      "geometry": {
        "type": "Point",
        "coordinates": [
          -122.07248013090036,
          -51.43009014874142
        ]
      }
    }
  ]
}